{
  "norad_id": 64723,
  "name": "MTG-S1",
  "history": [
    {
      "epoch": "2026-03-28T20:29:38.777856Z",
      "apogee_km": 35796.59412834447,
      "perigee_km": 35776.5296347347,
      "latitude_deg": 0.20554252684488178,
      "longitude_deg": -3.5161114948925287,
      "height_km": 35795.89770128668,
      "semi_major_axis_km": 42164.69888153959,
      "eccentricity": 0.00023793,
      "inclination_deg": 0.6276,
      "raan_deg": 331.0297,
      "arg_perigee_deg": 349.3349,
      "mean_anomaly_deg": 169.7679,
      "mean_motion_rev_day": 1.00271903
    },
    {
      "epoch": "2026-03-29T04:27:36.609696Z",
      "apogee_km": 35796.4661515844,
      "perigee_km": 35776.60659042665,
      "latitude_deg": -0.597801557418535,
      "longitude_deg": -3.546965745363389,
      "height_km": 35782.87927952019,
      "semi_major_axis_km": 42164.67337100553,
      "eccentricity": 0.0002355,
      "inclination_deg": 0.6269,
      "raan_deg": 331.1047,
      "arg_perigee_deg": 349.6462,
      "mean_anomaly_deg": 289.2002,
      "mean_motion_rev_day": 1.00271994
    },
    {
      "epoch": "2026-03-30T02:42:22.483872Z",
      "apogee_km": 35796.24762361206,
      "perigee_km": 35776.69167904717,
      "latitude_deg": -0.5837524422545528,
      "longitude_deg": -3.5488235270270305,
      "height_km": 35787.3736434842,
      "semi_major_axis_km": 42164.60665132962,
      "eccentricity": 0.0002319,
      "inclination_deg": 0.6259,
      "raan_deg": 331.3068,
      "arg_perigee_deg": 350.8324,
      "mean_anomaly_deg": 262.418,
      "mean_motion_rev_day": 1.00272232
    }
  ]
}